     2.100          NAVIGATION                              RINEX VERSION / TYPE
fic2rin                                 04/21/2017 00:16:29 PGM / RUN BY / DATE
                                                            END OF HEADER
17 17  4 21  0  0  0.0 -.183111522347D-03  .159161572810D-11  .000000000000D+00
     .670000000000D+02  .151875000000D+02  .432910889619D-08 -.305690232178D+01
     .910833477974D-06  .116202926729D-01  .461377203465D-05  .515361639786D+04
     .432000000000D+06  .270083546638D-06 -.277216235333D+01 -.139698386192D-06
     .979840414561D+00  .297093750000D+03 -.184994189170D+01 -.796318884164D-08
     .148577617426D-09  .100000000000D+01  .194500000000D+04  .000000000000D+00
     .340000000000D+01  .000000000000D+00 -.111758708954D-07  .670000000000D+02
     .424806000000D+06  .400000000000D+01
18 17  4 21  0  0  0.0  .611528288573D-03  .193267624127D-11  .000000000000D+00
     .850000000000D+02 -.121875000000D+02  .514235705696D-08 -.157060241700D+01
    -.553205609322D-06  .179807289969D-01  .106170773506D-04  .515375528336D+04
     .432000000000D+06  .368803739548D-06 -.768450162359D+00  .387430191040D-06
     .925538547093D+00  .153750000000D+03 -.181321723072D+01 -.818784105645D-08
     .171435712414D-10  .100000000000D+01  .194500000000D+04  .000000000000D+00
     .240000000000D+01  .000000000000D+00 -.111758708954D-07  .850000000000D+02
     .424806000000D+06  .400000000000D+01
19 17  4 21  0  0  0.0 -.506455078721D-03  .136424205266D-11  .000000000000D+00
     .112000000000D+03  .946875000000D+01  .448590114150D-08  .631291253986D-01
     .644475221634D-06  .102429246763D-01  .463798642159D-05  .515365966225D+04
     .432000000000D+06 -.242143869400D-07 -.272425176430D+01  .949949026108D-07
     .977065130227D+00  .299062500000D+03  .951040582703D+00 -.832820404598D-08
     .960754304987D-10  .100000000000D+01  .194500000000D+04  .000000000000D+00
     .240000000000D+01  .000000000000D+00 -.153668224812D-07  .112000000000D+03
     .424806000000D+06  .400000000000D+01
20 17  4 21  0  0  0.0  .469111371785D-03  .147792889038D-11  .000000000000D+00
     .340000000000D+02 -.197812500000D+02  .513128516720D-08  .235462128418D+01
    -.105239450932D-05  .437307823449D-02  .104308128357D-04  .515366600037D+04
     .432000000000D+06  .763684511185D-07 -.819851265159D+00  .372529029846D-07
     .926849950746D+00  .158468750000D+03  .158606412399D+01 -.822355682986D-08
     .396445084958D-10  .100000000000D+01  .194500000000D+04  .000000000000D+00
     .240000000000D+01  .000000000000D+00 -.838190317154D-08  .340000000000D+02
     .424806000000D+06  .400000000000D+01
21 17  4 21  0  0  0.0 -.511307734996D-03  .204636307899D-11  .000000000000D+00
     .790000000000D+02 -.727187500000D+02  .535486590880D-08 -.662134602461D+00
    -.367686152458D-05  .240202373825D-01  .667385756969D-05  .515369738770D+04
     .432000000000D+06 -.279396772385D-06 -.180948264079D+01  .173225998878D-06
     .939055165520D+00  .241687500000D+03 -.168207261557D+01 -.900930384510D-08
    -.161792453591D-09  .100000000000D+01  .194500000000D+04  .000000000000D+00
     .340000000000D+01  .000000000000D+00 -.977888703346D-08  .790000000000D+02
     .424806000000D+06  .400000000000D+01
22 17  4 21  0  0  0.0  .349334441125D-04 -.120508047985D-10  .000000000000D+00
     .890000000000D+02 -.300937500000D+02  .520235955630D-08  .276130088587D+01
    -.158138573170D-05  .759877520613D-02  .100098550320D-04  .515353889275D+04
     .432000000000D+06  .100582838058D-06 -.768523814433D+00 -.633299350739D-07
     .923563505281D+00  .163437500000D+03 -.176502537813D+01 -.816319717279D-08
    -.107147320259D-11  .100000000000D+01  .194500000000D+04  .000000000000D+00
     .240000000000D+01  .000000000000D+00 -.176951289177D-07  .890000000000D+02
     .424806000000D+06  .400000000000D+01
23 17  4 21  0  0  0.0 -.210226047784D-03 -.795807864051D-12  .000000000000D+00
     .570000000000D+02  .416875000000D+02  .502342353147D-08  .195864401958D+01
     .207498669624D-05  .115479573142D-01  .697560608387D-05  .515376108170D+04
     .432000000000D+06 -.283122062683D-06  .314443617427D+00 -.391155481339D-07
     .944910196697D+00  .239468750000D+03 -.247859663376D+01 -.833570435840D-08
     .148220459691D-09  .100000000000D+01  .194500000000D+04  .000000000000D+00
     .240000000000D+01  .000000000000D+00 -.204890966415D-07  .570000000000D+02
     .424806000000D+06  .400000000000D+01
24 17  4 21  0  0  0.0 -.336659140885D-04 -.568434188608D-12  .000000000000D+00
     .690000000000D+02  .781250000000D+00  .499520807047D-08  .132068653610D+01
    -.968575477600D-07  .564729899634D-02  .689364969730D-05  .515369346428D+04
     .432000000000D+06  .186264514923D-07  .133807693820D+01  .912696123123D-07
     .945583415505D+00  .237593750000D+03  .485569066861D+00 -.837856328651D-08
    -.315013121561D-09  .100000000000D+01  .194500000000D+04  .000000000000D+00
     .240000000000D+01  .000000000000D+00  .279396772385D-08  .690000000000D+02
     .424806000000D+06  .400000000000D+01
25 17  4 21  0  0  0.0 -.373580027372D-03 -.659383658785D-11  .000000000000D+00
     .430000000000D+02  .473750000000D+02  .413874382386D-08 -.636073673627D+00
     .256858766079D-05  .647097895853D-02  .920891761780D-05  .515360742950D+04
     .432000000000D+06  .558793544769D-07  .241988400392D+01  .912696123123D-07
     .977362264981D+00  .214031250000D+03  .791851147710D+00 -.796140305296D-08
     .800033324599D-10  .100000000000D+01  .194500000000D+04  .000000000000D+00
     .240000000000D+01  .000000000000D+00  .558793544769D-08  .430000000000D+02
     .424806000000D+06  .400000000000D+01
27 17  4 21  0  0  0.0  .244204420596D-03  .636646291241D-11  .000000000000D+00
     .290000000000D+02  .268125000000D+02  .446304304651D-08 -.295379388354D+01
     .132434070110D-05  .471319269855D-02  .520236790180D-05  .515366188431D+04
     .432000000000D+06 -.135973095894D-06 -.282391442481D+01 -.298023223877D-07
     .974759994118D+00  .287593750000D+03  .319261313875D+00 -.810962351266D-08
     .206794328100D-09  .100000000000D+01  .194500000000D+04  .000000000000D+00
     .240000000000D+01  .000000000000D+00  .139698386192D-08  .290000000000D+02
     .424806000000D+06  .400000000000D+01
28 17  4 21  0  0  0.0  .606554094702D-03  .284217094304D-11  .000000000000D+00
     .120000000000D+03  .379375000000D+02  .370729728096D-08 -.214913503873D+01
     .216998159885D-05  .197447342798D-01  .870972871780D-05  .515365282822D+04
     .432000000000D+06  .244006514549D-06  .249817524824D+01  .203028321266D-06
     .988722744042D+00  .220562500000D+03 -.157072866830D+01 -.741388024644D-08
     .158578033983D-09  .100000000000D+01  .194500000000D+04  .000000000000D+00
     .485000000000D+01  .000000000000D+00 -.111758708954D-07  .120000000000D+03
     .424806000000D+06  .400000000000D+01
29 17  4 21  0  0  0.0  .610929913819D-03 -.306954461848D-11  .000000000000D+00
     .740000000000D+02  .990625000000D+01  .446768609706D-08 -.108728098626D+01
     .584870576859D-06  .709711457603D-03  .452995300293D-05  .515364125443D+04
     .432000000000D+06 -.111758708954D-07 -.276207486755D+01  .111758708954D-07
     .980936137276D+00  .305281250000D+03  .148780865023D+00 -.819534136886D-08
     .206437170365D-09  .100000000000D+01  .194500000000D+04  .000000000000D+00
     .240000000000D+01  .000000000000D+00 -.977888703346D-08  .740000000000D+02
     .424806000000D+06  .400000000000D+01
30 17  4 21  0  0  0.0  .158567912877D-03 -.682121026330D-12  .000000000000D+00
     .560000000000D+02 -.562500000000D+01  .483305845914D-08  .524847015813D+00
    -.271946191788D-06  .266581692267D-02  .686198472977D-05  .515369017029D+04
     .432000000000D+06  .279396772385D-07  .143039373844D+01  .447034835815D-07
     .948245677713D+00  .240812500000D+03  .306202921767D+01 -.830606026646D-08
    -.213223167315D-09  .100000000000D+01  .194500000000D+04  .000000000000D+00
     .240000000000D+01  .000000000000D+00  .372529029846D-08  .560000000000D+02
     .424806000000D+06  .400000000000D+01
31 17  4 21  0  0  0.0  .205979216844D-03 -.238742359215D-11  .000000000000D+00
     .820000000000D+02 -.525000000000D+01  .449340145392D-08  .278974656574D+00
    -.145286321640D-06  .845467241015D-02  .732392072678D-05  .515368379974D+04
     .432000000000D+06  .122934579849D-06  .140171737833D+01 -.122934579849D-06
     .967265109309D+00  .238875000000D+03 -.260647596310D+00 -.820177020808D-08
    -.236438420038D-09  .100000000000D+01  .194500000000D+04  .000000000000D+00
     .240000000000D+01  .000000000000D+00 -.135041773319D-07  .820000000000D+02
     .424806000000D+06  .400000000000D+01
32 17  4 21  0  0  0.0 -.391031615436D-03 -.113686837722D-10  .000000000000D+00
     .320000000000D+02  .352187500000D+02  .461769234542D-08 -.225042698037D+01
     .187754631042D-05  .105546892155D-02  .708177685738D-05  .515371125984D+04
     .432000000000D+06 -.763684511185D-07  .315291938752D+00  .931322574615D-08
     .958541639564D+00  .242593750000D+03 -.267894909152D+01 -.805747848346D-08
     .224652214809D-09  .100000000000D+01  .194500000000D+04  .000000000000D+00
     .240000000000D+01  .000000000000D+00  .465661287308D-09  .320000000000D+02
     .424806000000D+06  .400000000000D+01
10 17  4 20 23 59 44.0 -.720163807273D-04  .807176547823D-11  .000000000000D+00
     .100000000000D+02 -.230937500000D+02  .430017911972D-08 -.105893776332D+01
    -.128708779812D-05  .245347653981D-02  .109691172838D-04  .515367675209D+04
     .431984000000D+06  .104308128357D-06 -.727669926739D+00 -.558793544769D-07
     .959995645546D+00  .169593750000D+03 -.279026090580D+01 -.784496963162D-08
     .400016662300D-10  .100000000000D+01  .194500000000D+04  .000000000000D+00
     .240000000000D+01  .000000000000D+00  .186264514923D-08  .100000000000D+02
     .427476000000D+06  .400000000000D+01
